STARLINK-11265 [DTC]    
1 60909U 24154G   26200.70314687  .00000147  00000+0  60715-5 0  9991
2 60909  53.1586 200.8478 0000996 105.2033 254.9095 15.69708110109249
STARLINK-11250 [DTC]    
1 60910U 24154H   26200.29659737 -.00009286  00000+0 -71755-4 0  9995
2 60910  53.1588 202.5682 0000967  65.6338 294.4781 15.69749686109181
STARLINK-11190 [DTC]    
1 60911U 24154J   26200.29170294 -.00001099  00000+0 -42210-5 0  9991
2 60911  53.1586 202.5367 0000824  89.7615 270.3497 15.69702807109177
STARLINK-11225 [DTC]    
1 60912U 24154K   26200.41413225  .00000264  00000+0  70337-5 0  9992
2 60912  53.1589 201.8760 0000938 100.7210 259.3913 15.69708714109196
STARLINK-11273 [DTC]    
1 60913U 24154L   26200.28189718  .00002891  00000+0  28742-4 0  9995
2 60913  53.1594 202.4715 0001682 100.9056 259.2152 15.69688386109171
STARLINK-11271 [DTC]    
1 60915U 24154N   26200.27207876 -.00000039  00000+0  45423-5 0  9991
2 60915  53.1600 202.4054 0001228  75.2859 284.8295 15.69704210109175
STARLINK-32371          
1 60916U 24154P   26200.82584304  .00001230  00000+0  51392-4 0  9991
2 60916  53.1605  29.5139 0001326 103.0037 257.1112 15.31705688106571
STARLINK-32369          
1 60917U 24154Q   26200.82117406  .00001166  00000+0  49334-4 0  9998
2 60917  53.1619  29.4867 0001304 104.3187 255.7959 15.31708790106570
STARLINK-32317          
1 60918U 24154R   26200.77317574  .00002665  00000+0  10210-3 0  9996
2 60918  53.1605  30.6048 0001717  80.1356 279.9838 15.30194840106554
STARLINK-32367          
1 60919U 24154S   26200.78256034  .00000523  00000+0  29796-4 0  9992
2 60919  53.1604  29.9540 0001201  98.5534 261.5603 15.30191697106566
STARLINK-32345          
1 60920U 24154T   26200.77423182 -.00000321  00000+0  12830-5 0  9992
2 60920  53.1614  30.6109 0001260  78.0887 282.0255 15.30191484106563
STARLINK-32356          
1 60921U 24154U   26200.81651111  .00002398  00000+0  89005-4 0  9995
2 60921  53.1621  29.4538 0001194 103.2805 256.8330 15.31705729106580
STARLINK-32274          
1 60922U 24154V   26200.82055037 -.00000020  00000+0  11469-4 0  9992
2 60922  53.1619  30.1872 0001322  92.2308 267.8844 15.30194598106572
STARLINK-32373          
1 60923U 24154W   26200.83005631  .00011665  00000+0  40616-3 0  9990
2 60923  53.1614  30.2480 0001632 108.1072 252.0106 15.30135136106573
STARLINK-11239 [DTC]    
1 60924U 24155A   26200.77905786 -.00000721  00000+0 -10985-5 0  9996
2 60924  53.1594  50.4588 0000980 122.2241 237.8872 15.69711708109148
STARLINK-11245 [DTC]    
1 60925U 24155B   26200.82801358 -.00000327  00000+0  21570-5 0  9996
2 60925  53.1597  50.0485 0001027  87.3083 272.8053 15.69708560109155
STARLINK-11244 [DTC]    
1 60926U 24155C   26200.81820027 -.00000348  00000+0  19829-5 0  9997
2 60926  53.1593  49.9830 0000970 102.6231 257.4895 15.69706924109206
STARLINK-11243 [DTC]    
1 60927U 24155D   26200.82310881 -.00000551  00000+0  31139-6 0  9996
2 60927  53.1591  50.0140 0000911  73.3533 286.7585 15.69707644109151
STARLINK-11238 [DTC]    
1 60928U 24155E   26200.81329694  .00000713  00000+0  10741-4 0  9991
2 60928  53.1605  49.9497 0000993  92.0036 268.1096 15.69707092109200
STARLINK-11240 [DTC]    
1 60929U 24155F   26200.87206360 -.00000819  00000+0 -19108-5 0  9998
2 60929  53.1591  49.6056 0000717  75.3119 284.7979 15.69704486109166
STARLINK-11251 [DTC]    
1 60930U 24155G   26200.80348385 -.00000353  00000+0  19453-5 0  9992
2 60930  53.1595  49.8841 0000923  93.6110 266.5014 15.69710057109157
STARLINK-11204 [DTC]    
1 60931U 24155H   26200.86225027  .00000775  00000+0  11254-4 0  9993
2 60931  53.1597  49.5369 0000959  84.0526 276.0602 15.69709062109160
STARLINK-11246 [DTC]    
1 60932U 24155J   26200.85734359  .00000191  00000+0  64342-5 0  9995
2 60932  53.1589  49.5043 0000910  83.2143 276.8978 15.69709273109162
STARLINK-11207 [DTC]    
1 60933U 24155K   26200.85243662 -.00000171  00000+0  34465-5 0  9990
2 60933  53.1592  49.4715 0001029  89.9181 270.1955 15.69709138109161
STARLINK-11237 [DTC]    
1 60934U 24155L   26200.78386903 -.00001792  00000+0 -99458-5 0  9993
2 60934  53.1602  49.7536 0000708  79.0761 281.0336 15.69709076109160
STARLINK-11253 [DTC]    
1 60935U 24155M   26200.83782330 -.00000748  00000+0 -13126-5 0  9992
2 60935  53.1607  50.1079 0001184  95.7014 264.4139 15.69711475109150
STARLINK-11241 [DTC]    
1 60936U 24155N   26200.83291797 -.00000795  00000+0 -17069-5 0  9997
2 60936  53.1603  50.0762 0001114  81.4917 278.6227 15.69711496109150
STARLINK-32259          
1 60937U 24155P   26200.36901269  .00000797  00000+0  34713-4 0  9992
2 60937  53.1599 237.1785 0000878  79.5973 280.5129 15.34386835106511
STARLINK-32258          
1 60939U 24155R   26200.37100912  .00002276  00000+0  78475-4 0  9998
2 60939  53.1583 236.4819 0001051  82.5142 277.5980 15.34402475106477
STARLINK-32251          
1 60940U 24155S   26200.39417135  .00000545  00000+0  27266-4 0  9999
2 60940  53.1598 236.6265 0001150  88.9352 271.1783 15.34392235106524
