OBJECT_NAME,OBJECT_ID,EPOCH,MEAN_MOTION,ECCENTRICITY,INCLINATION,RA_OF_ASC_NODE,ARG_OF_PERICENTER,MEAN_ANOMALY,EPHEMERIS_TYPE,CLASSIFICATION_TYPE,NORAD_CAT_ID,ELEMENT_SET_NO,REV_AT_EPOCH,BSTAR,MEAN_MOTION_DOT,MEAN_MOTION_DDOT
STARLINK-11265 [DTC],2024-154G,2026-07-19T16:52:31.889568,15.69708110,.0000996,53.1586,200.8478,105.2033,254.9095,0,U,60909,999,10924,.60715E-5,.147E-5,0
STARLINK-11250 [DTC],2024-154H,2026-07-19T07:07:06.012768,15.69749686,.00009672,53.1588,202.5682,65.6338,294.4781,0,U,60910,999,10918,-.71754933E-4,-.9286E-4,0
STARLINK-11190 [DTC],2024-154J,2026-07-19T07:00:03.134016,15.69702807,.00008249,53.1586,202.5367,89.7615,270.3497,0,U,60911,999,10917,-.4221008E-5,-.1099E-4,0
STARLINK-11225 [DTC],2024-154K,2026-07-19T09:56:21.026400,15.69708714,.00009388,53.1589,201.8760,100.7210,259.3913,0,U,60912,999,10919,.7033657E-5,.264E-5,0
STARLINK-11273 [DTC],2024-154L,2026-07-19T06:45:55.916352,15.69688386,.00016829,53.1594,202.4715,100.9056,259.2152,0,U,60913,999,10917,.28742411E-4,.2891E-4,0
STARLINK-11271 [DTC],2024-154N,2026-07-19T06:31:47.604864,15.69704210,.00012285,53.1600,202.4054,75.2859,284.8295,0,U,60915,999,10917,.4542306E-5,-.39E-6,0
STARLINK-32371,2024-154P,2026-07-19T19:49:12.838656,15.31705688,.0001326,53.1605,29.5139,103.0037,257.1112,0,U,60916,999,10657,.51392E-4,.123E-4,0
STARLINK-32369,2024-154Q,2026-07-19T19:42:29.438784,15.31708790,.0001304,53.1619,29.4867,104.3187,255.7959,0,U,60917,999,10657,.49334E-4,.1166E-4,0
STARLINK-32317,2024-154R,2026-07-19T18:33:22.383936,15.30194840,.0001717,53.1605,30.6048,80.1356,279.9838,0,U,60918,999,10655,.1021E-3,.2665E-4,0
STARLINK-32367,2024-154S,2026-07-19T18:46:53.213376,15.30191697,.0001201,53.1604,29.9540,98.5534,261.5603,0,U,60919,999,10656,.29796E-4,.523E-5,0
STARLINK-32345,2024-154T,2026-07-19T18:34:53.629248,15.30191484,.000126,53.1614,30.6109,78.0887,282.0255,0,U,60920,999,10656,.1283E-5,-.321E-5,0
STARLINK-32356,2024-154U,2026-07-19T19:35:46.559904,15.31705729,.0001194,53.1621,29.4538,103.2805,256.8330,0,U,60921,999,10658,.89005E-4,.2398E-4,0
STARLINK-32274,2024-154V,2026-07-19T19:41:35.551968,15.30194598,.0001322,53.1619,30.1872,92.2308,267.8844,0,U,60922,999,10657,.11469E-4,-.2E-6,0
STARLINK-32373,2024-154W,2026-07-19T19:55:16.865184,15.30135136,.0001632,53.1614,30.2480,108.1072,252.0106,0,U,60923,999,10657,.40616E-3,.11665E-3,0
STARLINK-11239 [DTC],2024-155A,2026-07-19T18:41:50.599104,15.69711708,.000098,53.1594,50.4588,122.2241,237.8872,0,U,60924,999,10914,-.10985E-5,-.721E-5,0
STARLINK-11245 [DTC],2024-155B,2026-07-19T19:52:20.373312,15.69708560,.0001027,53.1597,50.0485,87.3083,272.8053,0,U,60925,999,10915,.2157E-5,-.327E-5,0
STARLINK-11244 [DTC],2024-155C,2026-07-19T19:38:12.503328,15.69706924,.000097,53.1593,49.9830,102.6231,257.4895,0,U,60926,999,10920,.19829E-5,-.348E-5,0
STARLINK-11243 [DTC],2024-155D,2026-07-19T19:45:16.601184,15.69707644,.0000911,53.1591,50.0140,73.3533,286.7585,0,U,60927,999,10915,.31139E-6,-.551E-5,0
STARLINK-11238 [DTC],2024-155E,2026-07-19T19:31:08.855616,15.69707092,.0000993,53.1605,49.9497,92.0036,268.1096,0,U,60928,999,10920,.10741E-4,.713E-5,0
STARLINK-11240 [DTC],2024-155F,2026-07-19T20:55:46.295040,15.69704486,.0000717,53.1591,49.6056,75.3119,284.7979,0,U,60929,999,10916,-.19108E-5,-.819E-5,0
STARLINK-11251 [DTC],2024-155G,2026-07-19T19:17:01.004640,15.69710057,.0000923,53.1595,49.8841,93.6110,266.5014,0,U,60930,999,10915,.19453E-5,-.353E-5,0
STARLINK-11204 [DTC],2024-155H,2026-07-19T20:41:38.423328,15.69709062,.0000959,53.1597,49.5369,84.0526,276.0602,0,U,60931,999,10916,.11254E-4,.775E-5,0
STARLINK-11246 [DTC],2024-155J,2026-07-19T20:34:34.486176,15.69709273,.000091,53.1589,49.5043,83.2143,276.8978,0,U,60932,999,10916,.64342E-5,.191E-5,0
STARLINK-11207 [DTC],2024-155K,2026-07-19T20:27:30.523968,15.69709138,.0001029,53.1592,49.4715,89.9181,270.1955,0,U,60933,999,10916,.34465E-5,-.171E-5,0
STARLINK-11237 [DTC],2024-155L,2026-07-19T18:48:46.284192,15.69709076,.0000708,53.1602,49.7536,79.0761,281.0336,0,U,60934,999,10916,-.99458E-5,-.1792E-4,0
STARLINK-11253 [DTC],2024-155M,2026-07-19T20:06:27.933120,15.69711475,.0001184,53.1607,50.1079,95.7014,264.4139,0,U,60935,999,10915,-.13126E-5,-.748E-5,0
STARLINK-11241 [DTC],2024-155N,2026-07-19T19:59:24.112608,15.69711496,.0001114,53.1603,50.0762,81.4917,278.6227,0,U,60936,999,10915,-.17069E-5,-.795E-5,0
STARLINK-32259,2024-155P,2026-07-19T08:51:22.696416,15.34386835,.0000878,53.1599,237.1785,79.5973,280.5129,0,U,60937,999,10651,.34713238E-4,.797E-5,0
STARLINK-32258,2024-155R,2026-07-19T08:54:15.187968,15.34402475,.00010514,53.1583,236.4819,82.5142,277.5980,0,U,60939,999,10647,.78475468E-4,.2276E-4,0
STARLINK-32251,2024-155S,2026-07-19T09:27:36.404640,15.34392235,.00011508,53.1598,236.6265,88.9352,271.1783,0,U,60940,999,10652,.27265608E-4,.545E-5,0
